#dP2023 12 18 12  0  0.00000000      96 __u+U IGS20 EXT  IAC
## 2293 129600.00000000   900.00000000 60296 0.5000000000000
+  119   C06C07C08C09C10C11C12C13C14C16C19C20C21C22C23C24C25
+        C26C27C28C29C30C32C33C34C35C36C37C38C39C40C41C42C43
+        C44C45C46E02E03E04E05E07E08E09E10E11E12E13E15E18E19
+        E21E24E25E26E27E30E31E33E34E36G01G02G03G04G05G06G07
+        G08G09G10G11G12G13G14G15G16G17G18G19G20G21G22G23G24
+        G25G26G27G28G29G30G31G32J02J03J04R01R02R03R04R05R07
+        R08R09R11R12R13R14R15R16R17R18R19R20R21R22R24R25R26
++        10 10  8  7 11 10  8  9  8  9  8  7  7  7  7  9  8
++         8  9  8  8 10 10  7  7  7  7  9 10 10  8  7  8  9
++         8  7  8  6  7  8  6  6  8  6  9  8  9  7  6  8  8
++         7  8  7  7  8  8  8  8  6  8  6  8  5  6  7  5  6
++         6  6  7  6  6  7  6  5  5  7  6  6  7  6  5  7  5
++         6  6  7  6  8  6  5  6  9  8  9  9  7 10 10  9  6
++         7  7  7  9  8  8  7  9  7  7  8  7  8  8  7  7  9
%c M  cc GPS ccc cccc cccc cccc cccc ccccc ccccc ccccc ccccc
%c cc cc ccc ccc cccc cccc cccc cccc ccccc ccccc ccccc ccccc
%f  0.0000000  0.000000000  0.00000000000  0.000000000000000
%f  0.0000000  0.000000000  0.00000000000  0.000000000000000
%i    0    0    0    0      0      0      0      0         0
%i    0    0    0    0      0      0      0      0         0
/* IAC                                ULTRA-RAPID PREDICTION
/* S/V CLOCKS ARE ALIGNED TO GNSS TIME                      
/* G:C1WC2W R:C1PC2P E:C1XC5X C:C2IC6I J:C1CC2S             
/* PCV:IGS20_2290 OL/AL:FES2004  NONE     YN ORB:CoN CLK:CoN
*  2023 12 18 22 15  0.00000000
PC06 -13965.639273  39936.637930  -1010.588084    215.228254
PC07  -2234.760902  30952.780262 -28403.617429   -496.288418
PC08 -14726.582974  21732.045721  32937.952716    171.859587
PC09  -7688.224857  39950.748010 -11776.375340   -235.428646
PC10   5328.033485  33216.854082 -24757.671697    -58.673250
PC11  -6992.481827 -23513.514801 -13239.038399    313.244274
PC12   4855.239258 -27093.941470   4652.396307    821.767453
PC13  -7887.581800  23258.904721  34378.377559    397.308060
PC14 -17514.246311 -19235.172111 -10156.507565   -220.047980
PC16 -15044.471680  39580.275401    876.010944   -233.441559
PC19  23105.058525  15591.818065   1188.052284   -950.290485
PC20  10632.194966  19894.806971  16421.835587     16.583895
PC21   9447.031410 -12507.959855 -23075.828408   -967.024138
PC22  22997.660728   2056.253249 -15665.937845   -181.440060
PC23 -25730.600876   6351.228804   8718.871003   -801.934522
PC24   2325.195211 -18292.378173  20932.743093    705.492862
PC25 -17226.951689  -7445.699779  20631.411109    281.226919
PC26  18970.634108 -18213.576995   9367.856424   -222.148816
PC27  -9827.357956  23015.246212 -12373.445036    244.130911
PC28 -15709.721323   7122.381901 -21927.181598    184.770909
PC29  13184.471817  15583.613831  19028.559164    216.337510
PC30   2298.422755  27572.175972   3724.206852    -10.760454
PC32  -9489.473116  12516.192572  23078.050813   -544.054766
PC33 -23183.990399 -15490.293771  -1265.169382   -941.801418
PC34  -3288.540088 -27215.232697  -5168.768937    327.856387
PC35  15509.342042  -7696.385023  21871.018712    477.607500
PC36  16432.851249   8399.835770 -20922.790251    -87.598743
PC37 -19755.664854  17582.053364  -8858.966986   -930.157749
PC38 -21931.137168  23390.754480  27338.533948    124.903077
PC39 -15705.261569  38729.477793   6435.153499     -6.190339
PC40  -5658.904516  26460.231295 -32252.967039    -48.409568
PC41 -23356.284834  -2564.296880  15109.223777   -874.169460
PC42  -9203.124135 -19762.991870 -17391.568144   -478.861361
PC43 -12906.277995 -16455.447379 -18471.338975     52.841799
PC44   9106.376167 -23231.701486  12454.303920    326.945257
PC45  25793.778488  -6695.258176  -8341.180118    -56.066573
PC46  -1177.822158  17853.662112 -21416.520712   -108.595578
PE02 -13471.344753 -15903.631240  21002.262701     87.740957
PE03 -12809.825707 -26676.902744    763.965448    -81.024849
PE04  19694.635694  13170.612501 -17745.896832   -283.203276
PE05   1441.174035 -24546.974399 -16477.151521   4701.800406
PE07 -15184.833459   7599.640738  24244.544795    -93.753306
PE08 -19569.774496 -13792.808454  17403.364239   -194.284180
PE09  15113.345910  -7420.764079 -24348.955616   -267.805070
PE10  20821.355957  -7559.812121  19639.234833   -587.387633
PE11  21291.185560 -17036.580424  11501.588169   3269.712512
PE12  17398.615971   2173.903315  23850.228275   -824.637179
PE13 -21333.547383  16534.691589 -12146.025493    -19.713383
PE15 -17072.011694  -2627.983252 -24025.478230    -75.423926
PE18 -19621.202550 -22738.831709 -12273.693145    110.089644
PE19  11230.377333  27349.951286   1521.881316   -988.320257
PE21  -8054.479178  15668.072606 -23789.815443   -569.521429
PE24  26225.564899  -5934.026292  12390.380950   -493.340832
PE25   8508.966461 -15561.253026  23700.845287     -1.780866
PE26 -12565.517785  25799.975709   7259.677164    313.602325
PE27 -25912.202961   6312.509804 -12826.157657   -227.494208
PE30 -28165.955613  -6936.201335   5830.847594   -752.877433
PE31  28304.973633   6655.444310  -5568.625539    -11.982305
PE33   2387.917653  20340.258444  21378.142281      4.436075
PE34  -2904.969291 -19972.181284 -21653.235046    -84.104807
PE36  13067.538229 -25715.283797  -6621.331184   -159.574635
PG01  13489.810609 -22411.693449  -3748.202526    164.188745
PG02  16016.211364 -20586.302443   4847.980862   -513.640947
PG03  12924.048529 -12116.872544 -19895.631484     64.416660
PG04   4387.904829 -19920.513704 -16928.125106    243.072973
PG05 -23209.851219   6552.731061  11055.565645   -154.632799
PG06 -14337.236570  -4643.137946 -21812.249147    473.794576
PG07    463.631114 -20997.077951  16450.206841    -15.303625
PG08  10152.849825 -12662.077629  20864.104209   -157.659506
PG09  -5847.193120 -24655.267698  -7948.647101     30.986412
PG10  20312.595795  10989.674267  13605.974231    -65.852801
PG11 -19502.703908   5835.238202 -17008.335310   -506.122465
PG12 -14167.624727  11466.990172 -19576.411527   -458.833831
PG13 -14955.440767   1806.653319  21685.401394    607.027025
PG14 -16955.781989 -13350.907726  15620.984711    274.581490
PG15  -8880.868920  13863.946846  20315.054194    108.298401
PG16  26078.213708    602.605490   5837.697913   -401.574444
PG17 -12713.478928 -22482.736251  -5426.315790    721.788559
PG18   -191.230740  20087.234866  17293.938277   -509.794033
PG19 -15773.261248 -16436.462099 -14134.203369    414.343961
PG20 -26382.601639    836.908641  -1828.719084    395.972960
PG21  17252.634102 -17815.269604   8548.980594    141.139270
PG22 -21817.664551 -11248.823371  10202.334680     63.667038
PG23   8307.912883  14520.316408  20692.467028    118.576279
PG24 -15291.316788  21038.830837   3717.998678   -396.181759
PG25   -711.789528  15559.405572 -21847.326131    482.003847
PG26  26236.818186   3473.174974  -4075.532810    208.118684
PG27  16595.311680   1978.075758  20477.712464    -84.637648
PG28  13236.433899   7556.676043 -21774.498481    -73.709584
PG29   3028.672289  24908.970989  -8596.049510   -609.655844
PG30  -8650.043966 -14246.586945  20754.400053   -455.895074
PG31  18198.791712  -1150.894315 -19653.779139   -226.696545
PG32  15892.237250  19512.233194  -8630.057644   -597.568240
PJ02 -31135.507494  14874.952295 -19591.178397     -0.632553
PJ03 -23094.296025  33649.771364  -6255.423318    -12.533801
PJ04 -26069.181841  26417.268570  25960.326904     74.517862
PR01  12758.447919  -2691.181486 -21923.766156     72.437078
PR02  -1970.059116 -14998.299234 -20474.103066    -22.346393
PR03 -15496.835827 -18910.112851  -7113.119612     91.170913
PR04 -19930.905221 -12538.351293   9809.802878    215.901010
PR05 -13760.975763    658.670741  21469.171541    124.000756
PR07  15951.798012  18905.890321   6386.452362     71.639806
PR08  20049.975687  12311.914003  -9847.250508    -73.741286
PR09 -10680.350982  13533.684131 -18817.740576    159.483647
PR11  20888.117028    516.051644 -14615.066880   -222.271192
PR12  23367.795443  -9430.278938   4039.152250     34.616035
PR13  13019.853494 -13158.632774  17533.165387    -42.431217
PR14  -7491.053004  -9123.746229  22619.172752     25.783333
PR15 -21686.760331     55.868404  13444.259383     83.841978
PR16 -23433.613701   9411.712164  -3709.508244     21.667425
PR17  -2446.586559 -20262.459155 -15311.754647     44.671481
PR18  -9410.992992  -5325.711076 -23076.309943    117.549613
PR19 -12083.113604  10396.211589 -19905.152955   -258.795187
PR20  -7768.564366  24218.684134  -2191.196342   -105.381410
PR21   2547.670078  19860.513943  15794.026931    -62.038732
PR22   9991.852858   4681.245959  23030.468678     98.910913
PR24   6614.072633 -24591.138367   1648.887972    -36.474029
PR25   1852.444982  20315.939681  15310.841718      2.683188
PR26  20148.397389  12593.824098  -9238.528992    -23.368981
EOF
